NORAD_CAT_ID,OBJECT_NAME,OBJECT_TYPE,EPOCH,MEAN_MOTION,ECCENTRICITY,INCLINATION,RA_OF_ASC_NODE,ARG_OF_PERICENTER,MEAN_ANOMALY,BSTAR,MEAN_MOTION_DOT,MEAN_MOTION_DDOT,TLE_LINE0,TLE_LINE1,TLE_LINE2,SEMIMAJOR_AXIS,PERIOD,APOGEE,PERIGEE,DECAYED
54807.0,STARLINK-5410,PAYLOAD,2024-01-09 21:38:58,15.08841656,0.0001458,53.2184,334.2435,107.1411,252.9741,4.785e-05,4.74e-06,0.0,0 STARLINK-5410,1 54807U 22175BB  24009.90206719  .00000474  00000-0  47850-4 0  9993,2 54807  53.2184 334.2435 0001458 107.1411 252.9741 15.08841656 60905,6917.875,95.437,540.749,538.732,0.0
54807.0,STARLINK-5410,PAYLOAD,2024-01-10 04:00:30,15.08851375,0.0001469,53.2181,333.0572,96.0282,264.0877,0.00012515,1.705e-05,0.0,0 STARLINK-5410,1 54807U 22175BB  24010.16701987  .00001705  00000-0  12515-3 0  9997,2 54807  53.2181 333.0572 0001469  96.0282 264.0877 15.08851375 58781,6917.846,95.437,540.727,538.694,0.0
54807.0,STARLINK-5410,PAYLOAD,2024-01-11 02:15:57,15.08815074,0.0001365,53.2181,328.8948,100.2242,259.8904,-0.00013983,-2.511e-05,0.0,0 STARLINK-5410,1 54807U 22175BB  24011.09441979 -.00002511  00000-0 -13983-3 0  9990,2 54807  53.2181 328.8948 0001365 100.2242 259.8904 15.08815074 58924,6917.957,95.439,540.766,538.877,0.0
54807.0,STARLINK-5410,PAYLOAD,2024-01-11 07:02:06,15.08821129,0.0001927,53.2186,327.9931,130.8387,229.2772,-8.9443e-05,-1.711e-05,0.0,0 STARLINK-5410,1 54807U 22175BB  24011.29313440 -.00001711  00000-0 -89443-4 0  9999,2 54807  53.2186 327.9931 0001927 130.8387 229.2772 15.08821129 58959,6917.938,95.439,541.136,538.47,0.0
54807.0,STARLINK-5410,PAYLOAD,2024-01-11 21:20:33,15.08847655,0.0001157,53.2183,325.3272,87.1452,272.9673,7.6576e-05,9.31e-06,0.0,0 STARLINK-5410,1 54807U 22175BB  24011.88927532  .00000931  00000-0  76576-4 0  9991,2 54807  53.2183 325.3272 0001157  87.1452 272.9673 15.08847655 61207,6917.857,95.437,540.522,538.922,0.0
54807.0,STARLINK-5410,PAYLOAD,2024-01-12 03:42:05,15.08860549,0.0001631,53.2188,324.136,107.8338,252.2832,0.00030421,4.559e-05,0.0,0 STARLINK-5410,1 54807U 22175BB  24012.15423085  .00004559  00000-0  30421-3 0  9994,2 54807  53.2188 324.1360 0001631 107.8338 252.2832 15.08860549 59085,6917.818,95.436,540.811,538.554,0.0
54807.0,STARLINK-5410,PAYLOAD,2024-01-12 19:35:57,15.08843775,0.0001763,53.2182,321.1673,84.3204,275.7989,0.00046888,7.183e-05,0.0,0 STARLINK-5410,1 54807U 22175BB  24012.81664101  .00007183  00000-0  46888-3 0  9993,2 54807  53.2182 321.1673 0001763  84.3204 275.7989 15.08843775 59186,6917.869,95.437,540.953,538.514,0.0
54807.0,STARLINK-5410,PAYLOAD,2024-01-12 21:11:20,15.0884044,0.0001535,53.2181,320.8642,105.0264,255.0898,0.00034898,5.27e-05,0.0,0 STARLINK-5410,1 54807U 22175BB  24012.88288149  .00005270  00000-0  34898-3 0  9997,2 54807  53.2181 320.8642 0001535 105.0264 255.0898 15.08840440 61359,6917.879,95.438,540.806,538.682,0.0
54807.0,STARLINK-5410,PAYLOAD,2024-01-13 05:08:16,15.08844241,0.000135,53.2178,319.3777,97.5772,262.5373,0.00029925,4.478e-05,0.0,0 STARLINK-5410,1 54807U 22175BB  24013.21407875  .00004478  00000-0  29925-3 0  9998,2 54807  53.2178 319.3777 0001350  97.5772 262.5373 15.08844241 61401,6917.867,95.437,540.666,538.799,0.0
54807.0,STARLINK-5410,PAYLOAD,2024-01-14 03:23:40,15.08848994,0.000162,53.2184,315.2177,78.4303,281.6871,-5.1884e-05,-1.114e-05,0.0,0 STARLINK-5410,1 54807U 22175BB  24014.14143594 -.00001114  00000-0 -51884-4 0  9992,2 54807  53.2184 315.2177 0001620  78.4303 281.6871 15.08848994 59383,6917.853,95.437,540.839,538.597,0.0
54807.0,STARLINK-5410,PAYLOAD,2024-01-14 06:34:25,15.08857688,0.0001415,53.2174,314.6211,112.6657,247.4485,7.0095e-05,8.28e-06,0.0,0 STARLINK-5410,1 54807U 22175BB  24014.27390775  .00000828  00000-0  70095-4 0  9995,2 54807  53.2174 314.6211 0001415 112.6657 247.4485 15.08857688 59403,6917.826,95.436,540.67,538.712,0.0
54807.0,STARLINK-5410,PAYLOAD,2024-01-14 19:17:31,15.08847387,0.0001999,53.2174,312.2418,101.4222,258.6995,0.00015106,2.117e-05,0.0,0 STARLINK-5410,1 54807U 22175BB  24014.80383368  .00002117  00000-0  15106-3 0  9998,2 54807  53.2174 312.2418 0001999 101.4222 258.6995 15.08847387 59480,6917.858,95.437,541.106,538.34,0.0
54807.0,STARLINK-5410,PAYLOAD,2024-01-15 03:14:26,15.08856955,0.0001389,53.2176,310.7544,92.0732,268.0419,0.00028848,4.308e-05,0.0,0 STARLINK-5410,1 54807U 22175BB  24015.13503036  .00004308  00000-0  28848-3 0  9992,2 54807  53.2176 310.7544 0001389  92.0732 268.0419 15.08856955 61692,6917.829,95.436,540.654,538.733,0.0
54807.0,STARLINK-5410,PAYLOAD,2024-01-15 23:54:27,15.08839735,0.000123,53.2182,306.8881,92.1591,267.9541,-4.4703e-05,-9.99e-06,0.0,0 STARLINK-5410,1 54807U 22175BB  24015.99615720 -.00000999  00000-0 -44703-4 0  9993,2 54807  53.2182 306.8881 0001230  92.1591 267.9541 15.08839735 59663,6917.881,95.438,540.597,538.895,0.0
54807.0,STARLINK-5410,PAYLOAD,2024-01-16 04:40:37,15.08847283,0.0001336,53.2169,305.9961,97.3802,262.7342,8.0624e-05,9.96e-06,0.0,0 STARLINK-5410,1 54807U 22175BB  24016.19487365  .00000996  00000-0  80624-4 0  9995,2 54807  53.2169 305.9961 0001336  97.3802 262.7342 15.08847283 59698,6917.858,95.437,540.647,538.799,0.0
54807.0,STARLINK-5410,PAYLOAD,2024-01-17 01:20:37,15.08846718,0.0001434,53.2165,302.1296,96.0194,264.0962,0.00015193,2.131e-05,0.0,0 STARLINK-5410,1 54807U 22175BB  24017.05599490  .00002131  00000-0  15193-3 0  9995,2 54807  53.2165 302.1296 0001434  96.0194 264.0962 15.08846718 59823,6917.86,95.437,540.717,538.733,0.0
54807.0,STARLINK-5410,PAYLOAD,2024-01-17 22:00:39,15.08839016,0.0001407,53.2169,298.2639,93.7933,266.322,5.2582e-05,5.49e-06,0.0,0 STARLINK-5410,1 54807U 22175BB  24017.91712039  .00000549  00000-0  52582-4 0  9991,2 54807  53.2169 298.2639 0001407  93.7933 266.3220 15.08839016 62119,6917.883,95.438,540.722,538.775,0.0
54807.0,STARLINK-5410,PAYLOAD,2024-01-18 04:22:11,15.08840873,0.0001464,53.2171,297.0746,91.7271,268.3889,6.2398e-05,7.05e-06,0.0,0 STARLINK-5410,1 54807U 22175BB  24018.18207938  .00000705  00000-0  62398-4 0  9998,2 54807  53.2171 297.0746 0001464  91.7271 268.3889 15.08840873 59992,6917.878,95.437,540.755,538.73,0.0
54807.0,STARLINK-5410,PAYLOAD,2024-01-18 21:51:26,15.08840788,0.0001472,53.2173,293.803,93.4012,266.7149,9.6639e-05,1.25e-05,0.0,0 STARLINK-5410,1 54807U 22175BB  24018.91072047  .00001250  00000-0  96639-4 0  9991,2 54807  53.2173 293.8030 0001472  93.4012 266.7149 15.08840788 62265,6917.878,95.438,540.761,538.725,0.0
54807.0,STARLINK-5410,PAYLOAD,2024-01-19 04:12:58,15.08851994,0.0001655,53.2171,292.6126,91.6795,268.4386,6.0511e-06,-1.92e-06,0.0,0 STARLINK-5410,1 54807U 22175BB  24019.17567463 -.00000192  00000-0  60511-5 0  9997,2 54807  53.2171 292.6126 0001655  91.6795 268.4386 15.08851994 62305,6917.844,95.437,540.854,538.564,0.0
54807.0,STARLINK-5410,PAYLOAD,2024-01-19 21:42:13,15.08840049,0.0001923,53.2162,289.3388,118.8129,241.3056,5.3122e-05,5.57e-06,0.0,0 STARLINK-5410,1 54807U 22175BB  24019.90431911  .00000557  00000-0  53122-4 0  9999,2 54807  53.2162 289.3388 0001923 118.8129 241.3056 15.08840049 62414,6917.88,95.438,541.076,538.415,0.0
54807.0,STARLINK-5410,PAYLOAD,2024-01-19 23:17:36,15.08838237,0.0001972,53.2166,289.0431,125.6613,234.4563,5.7425e-05,6.26e-06,0.0,0 STARLINK-5410,1 54807U 22175BB  24019.97055987  .00000626  00000-0  57425-4 0  9998,2 54807  53.2166 289.0431 0001972 125.6613 234.4563 15.08838237 60265,6917.886,95.438,541.115,538.387,0.0
54807.0,STARLINK-5410,PAYLOAD,2024-01-20 04:03:45,15.08837102,0.0002048,53.2165,288.1502,126.0325,234.0857,-3.8476e-05,-9e-06,0.0,0 STARLINK-5410,1 54807U 22175BB  24020.16928069 -.00000900  00000-0 -38476-4 0  9993,2 54807  53.2165 288.1502 0002048 126.0325 234.0857 15.08837102 62458,6917.889,95.438,541.171,538.337,0.0
54807.0,STARLINK-5410,PAYLOAD,2024-01-20 23:08:23,15.0884281,0.0001791,53.2168,284.582,125.9689,234.147,-5.4893e-05,-1.162e-05,0.0,0 STARLINK-5410,1 54807U 22175BB  24020.96416436 -.00001162  00000-0 -54893-4 0  9993,2 54807  53.2168 284.5820 0001791 125.9689 234.1470 15.08842810 62576,6917.872,95.437,540.976,538.498,0.0
54807.0,STARLINK-5410,PAYLOAD,2024-01-21 02:19:10,15.08841076,0.0001449,53.2174,283.9895,101.649,258.4664,4.1528e-05,3.73e-06,0.0,0 STARLINK-5410,1 54807U 22175BB  24021.09664404  .00000373  00000-0  41528-4 0  9990,2 54807  53.2174 283.9895 0001449 101.6490 258.4664 15.08841076 60439,6917.877,95.437,540.745,538.74,0.0
54807.0,STARLINK-5410,PAYLOAD,2024-01-21 16:37:40,15.08815162,0.000135,53.2163,281.3129,141.8995,218.2093,-8.0993e-05,-1.576e-05,0.0,0 STARLINK-5410,1 54807U 22175BB  24021.69282745 -.00001576  00000-0 -80993-4 0  9997,2 54807  53.2163 281.3129 0001350 141.8995 218.2093 15.08815162 60523,6917.956,95.439,540.755,538.887,0.0
54807.0,STARLINK-5410,PAYLOAD,2024-01-21 21:23:49,15.08827112,0.0001328,53.2167,280.4269,104.511,255.603,-7.3712e-05,-1.46e-05,0.0,0 STARLINK-5410,1 54807U 22175BB  24021.89154272 -.00001460  00000-0 -73712-4 0  9995,2 54807  53.2167 280.4269 0001328 104.5110 255.6030 15.08827112 62719,6917.92,95.438,540.703,538.866,0.0
54807.0,STARLINK-5410,PAYLOAD,2024-01-22 00:34:35,15.08826201,0.0001518,53.2172,279.8331,108.9898,251.1259,2.5072e-05,1.11e-06,0.0,0 STARLINK-5410,1 54807U 22175BB  24022.02402313  .00000111  00000-0  25072-4 0  9999,2 54807  53.2172 279.8331 0001518 108.9898 251.1259 15.08826201 60573,6917.923,95.438,540.838,538.737,0.0
54807.0,STARLINK-5410,PAYLOAD,2024-01-22 22:49:57,15.08853803,0.0001123,53.2156,275.6706,75.1876,284.9241,0.0001839,2.641e-05,0.0,0 STARLINK-5410,1 54807U 22175BB  24022.95136302  .00002641  00000-0  18390-3 0  9997,2 54807  53.2156 275.6706 0001123  75.1876 284.9241 15.08853803 62876,6917.838,95.437,540.48,538.926,0.0
54807.0,STARLINK-5410,PAYLOAD,2024-01-23 00:25:20,15.08858523,0.0001268,53.2164,275.3705,101.2635,258.85,0.00028172,4.201e-05,0.0,0 STARLINK-5410,1 54807U 22175BB  24023.01759893  .00004201  00000-0  28172-3 0  9994,2 54807  53.2164 275.3705 0001268 101.2635 258.8500 15.08858523 60729,6917.824,95.436,540.566,538.812,0.0
